SL-16 R/B               
1 23705U 95058B   26186.29392925 -.00000237  00000+0 -96666-4 0  9998
2 23705  71.0224 293.3428 0014632 295.7750  64.1863 14.15509668584490
ORBVIEW 2 (SEASTAR)     
1 24883U 97037A   26186.42050919  .00000331  00000+0  13132-3 0  9993
2 24883  98.8705 353.9462 0003302  80.0072 280.1485 14.35563721525367
SL-16 R/B               
1 25400U 98043G   26186.32449052  .00000070  00000+0  48459-4 0  9997
2 25400  98.8373 140.6405 0010549  38.5872 321.6060 14.26071735455753
SL-16 R/B               
1 25407U 98045B   26186.31780866  .00000037  00000+0  42635-4 0  9999
2 25407  71.0128 294.2001 0008646 219.5683 140.4810 14.16207840443759
ISS (ZARYA)             
1 25544U 98067A   26186.44376575  .00008907  00000+0  17013-3 0  9992
2 25544  51.6303 209.7275 0006728 258.7638 101.2595 15.48905966574589
CZ-4B R/B               
1 25732U 99025C   26186.12833940  .00000055  00000+0  47348-4 0  9996
2 25732  98.6474 227.5146 0037216   8.8406  55.6978 14.18286612404817
OKEAN-O                 
1 25860U 99039A   26186.19049235  .00000827  00000+0  11493-3 0  9994
2 25860  97.9306 244.7810 0001098  72.6717 287.4615 14.80490203451779
SL-16 R/B               
1 25861U 99039B   26186.12802663  .00000698  00000+0  94937-4 0  9991
2 25861  97.9827 244.9393 0013635 232.9720 127.0246 14.81864375454252
DELTA 2 R/B             
1 25876U 99041E   26186.43702882  .00001698  00000+0  31085-3 0  9991
2 25876  51.7612 190.8876 0501158 335.9450  21.8785 14.12058973379662
TERRA                   
1 25994U 99068A   26186.59504328  .00000519  00000+0  11457-3 0  9995
2 25994  97.9445 235.4105 0002932 142.1275  18.2573 14.61118865412292
TITAN 4B R/B            
1 26474U 00047B   26186.27299155  .00004244  00000+0  26032-3 0  9996
2 26474  67.9889  69.6626 0045948 268.6936  90.8949 15.10300979410668
ENVISAT                 
1 27386U 02009A   26186.34698652  .00000142  00000+0  59958-4 0  9999
2 27386  98.3842 137.2612 0001379  84.9699  80.2438 14.39069395276097
IDEFIX & ARIANE 42P R/B 
1 27422U 02021B   26186.30799067  .00000296  00000+0  12894-3 0  9999
2 27422  98.5942 123.5950 0011267 195.8811 164.2020 14.31090957260845
AQUA                    
1 27424U 02022A   26186.41103284  .00001072  00000+0  22270-3 0  9996
2 27424  98.4287 156.0591 0000703  91.7150  59.5464 14.62187973285937
CZ-4B R/B               
1 27432U 02024C   26186.12884140  .00000064  00000+0  55593-4 0  9997
2 27432  98.8689 238.8317 0050929  50.2573 336.1263 14.14567236245843
MIDORI II (ADEOS-II)    
1 27597U 02056A   26186.33841799  .00000343  00000+0  15230-3 0  9993
2 27597  98.7887 145.7533 0001854  53.3400 306.7952 14.29359943227103
H-2A R/B                
1 27601U 02056E   26186.38547155  .00000304  00000+0  12093-3 0  9994
2 27601  98.3322 142.3975 0070243 169.9742 357.0259 14.33830664230970
CZ-4B R/B               
1 28059U 03049C   26186.45360181  .00000388  00000+0  10052-3 0  9990
2 28059  98.6903 186.0278 0047136 231.4709 128.2257 14.55112319203723
CZ-2C R/B               
1 28222U 04012C   26186.20113536  .00174514  00000+0  80298-3 0  9998
2 28222  97.7059 264.0104 0011118 221.2434 138.7995 15.83048806222744
SL-16 R/B               
1 28353U 04021B   26186.47570683  .00000312  00000+0  18704-3 0  9999
2 28353  71.0018 345.3059 0006568 233.2736 126.7784 14.14612621139499
CZ-4B R/B               
1 28415U 04035C   26186.37073902  .00012089  00000+0  40220-3 0  9996
2 28415  97.3357 219.2414 0028823 269.6462  90.1477 15.30896318197905
CZ-2C R/B               
1 28480U 04046B   26186.28172552  .00000153  00000+0  71784-4 0  9990
2 28480  98.1929  93.9305 0139560 166.6018 193.8931 14.27031228125274
ARIANE 5 R/B            
1 28499U 04049H   26186.45200301  .00000799  00000+0  94267-4 0  9993
2 28499  98.2735 359.4120 0083153 330.2129  29.4364 14.85472034163277
CZ-2D R/B               
1 28738U 05024B   26186.50518155  .00078688  00000+0  60541-3 0  9997
2 28738  97.3474 206.8744 0000662 243.3623 116.7573 15.71777541158214
ALOS (DAICHI)           
1 28931U 06002A   26186.33191562  .00001415  00000+0  24370-3 0  9993
2 28931  98.1331 141.8437 0000832  71.5805 288.5491 14.70089569 90765
