OBJECT_NAME,OBJECT_ID,EPOCH,MEAN_MOTION,ECCENTRICITY,INCLINATION,RA_OF_ASC_NODE,ARG_OF_PERICENTER,MEAN_ANOMALY,EPHEMERIS_TYPE,CLASSIFICATION_TYPE,NORAD_CAT_ID,ELEMENT_SET_NO,REV_AT_EPOCH,BSTAR,MEAN_MOTION_DOT,MEAN_MOTION_DDOT
SL-16 R/B,1995-058B,2026-07-05T07:03:15.487200,14.15509668,.00146323,71.0224,293.3428,295.7750,64.1863,0,U,23705,999,58449,-.96665728E-4,-.237E-5,0
ORBVIEW 2 (SEASTAR),1997-037A,2026-07-05T10:05:31.994016,14.35563721,.00033023,98.8705,353.9462,80.0072,280.1485,0,U,24883,999,52536,.13132203E-3,.331E-5,0
SL-16 R/B,1998-043G,2026-07-05T07:47:15.981792,14.26071735,.00105487,98.8373,140.6405,38.5872,321.6060,0,U,25400,999,45575,.4845875E-4,.7E-6,0
SL-16 R/B,1998-045B,2026-07-05T07:37:38.668224,14.16207840,.00086463,71.0128,294.2001,219.5683,140.4810,0,U,25407,999,44375,.42635222E-4,.37E-6,0
ISS (ZARYA),1998-067A,2026-07-05T10:39:01.361664,15.48905966,.00067279,51.6303,209.7275,258.7638,101.2595,0,U,25544,999,57458,.17012518E-3,.8907E-4,0
CZ-4B R/B,1999-025C,2026-07-05T03:04:48.524160,14.18286612,.0037216,98.6474,227.5146,8.8406,55.6978,0,U,25732,999,40481,.47348389E-4,.55E-6,0
OKEAN-O,1999-039A,2026-07-05T04:34:18.539904,14.80490203,.0001098,97.9306,244.7810,72.6717,287.4615,0,U,25860,999,45177,.11492774E-3,.827E-5,0
SL-16 R/B,1999-039B,2026-07-05T03:04:21.501696,14.81864375,.00136355,97.9827,244.9393,232.9720,127.0246,0,U,25861,999,45425,.94936593E-4,.698E-5,0
DELTA 2 R/B,1999-041E,2026-07-05T10:29:19.290912,14.12058974,.05011581,51.7612,190.8876,335.9450,21.8785,0,U,25876,999,37966,.31084902E-3,.1698E-4,0
TERRA,1999-068A,2026-07-05T14:16:51.739392,14.61118865,.00029321,97.9445,235.4105,142.1275,18.2573,0,U,25994,999,41229,.11456697E-3,.519E-5,0
TITAN 4B R/B,2000-047B,2026-07-05T06:33:06.470784,15.10300979,.00459481,67.9889,69.6626,268.6936,90.8949,0,U,26474,999,41066,.26032463E-3,.4244E-4,0
ENVISAT,2002-009A,2026-07-05T08:19:39.635328,14.39069395,.00013785,98.3842,137.2612,84.9699,80.2438,0,U,27386,999,27609,.59957773E-4,.142E-5,0
IDEFIX & ARIANE 42P R/B,2002-021B,2026-07-05T07:23:30.394752,14.31090957,.00112673,98.5942,123.5950,195.8811,164.2020,0,U,27422,999,26084,.12893632E-3,.296E-5,0
AQUA,2002-022A,2026-07-05T09:51:53.237376,14.62187973,.00007025,98.4287,156.0591,91.7150,59.5464,0,U,27424,999,28593,.22269742E-3,.1072E-4,0
CZ-4B R/B,2002-024C,2026-07-05T03:05:31.897824,14.14567236,.00509291,98.8689,238.8317,50.2573,336.1263,0,U,27432,999,24584,.55593108E-4,.64E-6,0
MIDORI II (ADEOS-II),2002-056A,2026-07-05T08:07:19.314336,14.29359943,.00018542,98.7887,145.7533,53.3400,306.7952,0,U,27597,999,22710,.15230376E-3,.343E-5,0
H-2A R/B,2002-056E,2026-07-05T09:15:04.742784,14.33830664,.0070243,98.3322,142.3975,169.9742,357.0259,0,U,27601,999,23097,.12093008E-3,.304E-5,0
CZ-4B R/B,2003-049C,2026-07-05T10:53:11.196384,14.55112319,.00471358,98.6903,186.0278,231.4709,128.2257,0,U,28059,999,20372,.10051509E-3,.388E-5,0
CZ-2C R/B,2004-012C,2026-07-05T04:49:38.095968,15.83048806,.00111184,97.7059,264.0104,221.2434,138.7995,0,U,28222,999,22274,.80298177E-3,.174514E-2,0
SL-16 R/B,2004-021B,2026-07-05T11:25:01.070112,14.14612621,.00065678,71.0018,345.3059,233.2736,126.7784,0,U,28353,999,13949,.18703676E-3,.312E-5,0
CZ-4B R/B,2004-035C,2026-07-05T08:53:51.851328,15.30896318,.00288228,97.3357,219.2414,269.6462,90.1477,0,U,28415,999,19790,.40219938E-3,.12089E-3,0
CZ-2C R/B,2004-046B,2026-07-05T06:45:41.085792,14.27031228,.01395602,98.1929,93.9305,166.6018,193.8931,0,U,28480,999,12527,.71783749E-4,.153E-5,0
ARIANE 5 R/B,2004-049H,2026-07-05T10:50:53.060064,14.85472034,.00831527,98.2735,359.4120,330.2129,29.4364,0,U,28499,999,16327,.94266597E-4,.799E-5,0
CZ-2D R/B,2005-024B,2026-07-05T12:07:27.686784,15.71777541,.00006622,97.3474,206.8744,243.3623,116.7573,0,U,28738,999,15821,.60540982E-3,.78688E-3,0
ALOS (DAICHI),2006-002A,2026-07-05T07:57:57.510432,14.70089569,.00008322,98.1331,141.8437,71.5805,288.5491,0,U,28931,999,9076,.24370395E-3,.1415E-4,0
